OBJECT_NAME,OBJECT_ID,EPOCH,MEAN_MOTION,ECCENTRICITY,INCLINATION,RA_OF_ASC_NODE,ARG_OF_PERICENTER,MEAN_ANOMALY,EPHEMERIS_TYPE,CLASSIFICATION_TYPE,NORAD_CAT_ID,ELEMENT_SET_NO,REV_AT_EPOCH,BSTAR,MEAN_MOTION_DOT,MEAN_MOTION_DDOT
HST,1990-037B,2026-06-27T05:57:27.546336,15.30861955,.0001399,28.4733,11.8084,264.2756,95.7680,0,U,20580,999,79011,.22534E-3,.7152E-4,0
POLAR,1996-013A,2026-06-27T01:12:03.856032,1.29846078,.6480242,79.8666,226.9363,208.7404,90.4803,0,U,23802,999,14498,0,.164E-5,0
SWAS,1998-071A,2026-06-27T11:37:56.695008,15.09672170,.0008742,69.8942,200.9624,249.6021,110.4204,0,U,25560,999,49882,.15443E-3,.2389E-4,0
CXO,1999-040B,2026-06-28T22:55:40.167264,0.37796038,.78154391,56.3077,116.3625,310.1470,0.3486,0,U,25867,999,1736,0,.592E-5,0
XMM-NEWTON,1999-066A,2026-06-28T07:39:57.932064,0.50127671,.46708672,64.4273,282.8431,64.6865,0.1170,0,U,25989,999,2306,0,.41E-6,0
TERRA,1999-068A,2026-06-27T12:05:53.547072,14.61110705,.0002391,97.9451,227.6411,160.1344,307.1952,0,U,25994,999,41111,.84556E-4,.371E-5,0
CLUSTER II-FM7 (SAMBA),2000-041A,2026-06-28T07:05:50.148384,0.44873944,.90650285,149.8957,52.7269,270.0741,359.5894,0,U,26410,999,2036,0,.10019E-3,0
CLUSTER II-FM8 (TANGO),2000-045B,2026-06-26T10:39:58.262976,0.44409415,.9067324,150.1190,53.5568,270.7220,2.5445,0,U,26464,999,2035,0,.76E-4,0
ODIN,2001-007A,2026-06-27T08:53:30.844032,15.79674935,.0006093,97.3807,219.9927,136.5309,223.6439,0,U,26702,999,39100,.12437E-2,.232407E-2,0
TIMED,2001-055B,2026-06-27T12:17:32.949024,14.95312238,.0001638,74.0664,214.2291,321.7717,38.3351,0,U,26998,999,33236,.85784E-4,.906E-5,0
CORIOLIS,2003-001A,2026-06-27T11:38:30.309792,14.19947508,.0013975,98.7127,185.2126,178.4112,181.7111,0,U,27640,999,21568,.70397E-4,.106E-5,0
SORCE,2003-004A,2026-06-27T11:59:55.982400,15.03757726,.0016393,39.9888,202.8372,128.8346,231.3914,0,U,27651,999,27345,.17917E-3,.2357E-4,0
MOST,2003-031D,2026-06-27T11:44:27.527136,14.21324503,.000909,98.7044,186.0713,217.3674,142.6872,0,U,27843,999,19217,.51573E-4,.69E-6,0
SCISAT 1,2003-036A,2026-06-27T08:31:16.523904,14.81458509,.0008207,73.9290,151.1406,221.2650,138.7907,0,U,27858,999,23295,.83564E-4,.618E-5,0
SWIFT,2004-047A,2026-06-27T10:11:17.750400,15.69296928,.0001425,20.5517,105.8712,82.1861,277.8747,0,U,28485,999,18847,.43976E-3,.55035E-3,0
HINODE (SOLAR-B),2006-041A,2026-06-27T11:21:28.334304,14.68636037,.0015993,98.0544,194.4741,254.1235,105.8208,0,U,29479,999,5638,.12564E-3,.682E-5,0
SHIJIAN-6 02A (SJ-6 02A),2006-046A,2026-06-27T12:19:28.647264,15.17063977,.0004749,97.6364,219.6579,101.5459,258.6307,0,U,29505,999,7383,.47464E-3,.9334E-4,0
SHIJIAN-6 02B (SJ-6 02B),2006-046B,2026-06-27T13:02:16.737792,15.01403126,.0015271,97.7160,207.5384,31.2985,328.9145,0,U,29506,999,7229,.14815E-3,.1854E-4,0
FGRST (GLAST),2008-029A,2026-06-27T05:55:11.709984,15.23986907,.0008528,25.5810,134.6279,85.7083,274.4430,0,U,33053,999,99737,.1034E-3,.2915E-4,0
SDO,2010-005A,2026-06-27T06:56:38.621760,1.00270710,.0001538,34.6720,86.1888,47.5663,143.6115,0,U,36395,999,6016,0,-.95E-6,0
CRYOSAT 2,2010-013A,2026-06-27T11:43:21.557280,14.51902306,.0002136,92.0360,279.8056,94.9744,265.1707,0,U,36508,999,85957,.2586E-4,.107E-5,0
X-SAT,2011-015C,2026-06-27T11:24:42.782688,14.25210370,.0013278,98.3507,155.0087,317.4855,42.5296,0,U,37389,999,78914,.20492E-3,.441E-5,0
GCOM-W1 (SHIZUKU),2012-025A,2026-06-27T09:52:16.795200,14.57133527,.0001624,98.2022,118.8122,69.1512,42.0242,0,U,38337,999,75052,.1095E-3,.448E-5,0
NUSTAR,2012-031A,2026-06-27T14:00:01.999008,15.08899419,.0008622,6.0271,316.1616,264.0001,289.3056,0,U,38358,999,130,.22018E-3,.4437E-4,0
NEOSSAT,2013-009D,2026-06-27T10:52:55.955424,14.35829902,.0010347,98.4180,358.2421,210.4783,149.5803,0,U,39089,999,69821,.66093E-4,.149E-5,0
BRITE-AUSTRIA,2013-009F,2026-06-27T10:43:35.964192,14.36545897,.0009657,98.3997,357.6288,203.2735,156.8015,0,U,39091,999,69852,.72334E-4,.17E-5,0
IRIS,2013-033A,2026-06-27T12:50:53.367360,14.85904252,.0023008,97.9325,17.7799,286.2400,73.6284,0,U,39197,999,70191,.12125E-3,.1005E-4,0
HISAKI (SPRINT-A),2013-049A,2026-06-27T10:33:23.841792,13.55545569,.0136859,29.7172,167.8837,99.9744,261.6303,0,U,39253,999,63281,.54638E-4,.104E-5,0
CASSIOPE,2013-055A,2026-06-27T11:00:42.183648,15.26143758,.028872,80.9148,54.2403,27.8978,333.7395,0,U,39265,999,66923,.51352E-3,.47394E-3,-.36004E-6
STSAT-3,2013-066G,2026-06-27T12:00:01.561248,15.02811691,.0010228,97.6211,148.2223,15.6374,344.5165,0,U,39422,999,68575,.24389E-3,.3208E-4,0
SWARM B,2013-067A,2026-06-27T11:27:31.343040,15.28612813,.0003002,87.7440,339.1897,81.5945,278.5644,0,U,39451,999,68481,.12651E-3,.3553E-4,0
